NORAD_CAT_ID,OBJECT_NAME,OBJECT_TYPE,EPOCH,MEAN_MOTION,ECCENTRICITY,INCLINATION,RA_OF_ASC_NODE,ARG_OF_PERICENTER,MEAN_ANOMALY,BSTAR,MEAN_MOTION_DOT,MEAN_MOTION_DDOT,TLE_LINE0,TLE_LINE1,TLE_LINE2,SEMIMAJOR_AXIS,PERIOD,APOGEE,PERIGEE,DECAYED
51860.0,STARLINK-3559,PAYLOAD,2022-04-17 22:00:00,15.60589577,0.0001161,53.2176,280.3631,73.4704,231.2931,-0.0092191,-0.00711622,0.0,0 STARLINK-3559,1 51860U 22022J   22107.91667824 -.00711622  00000-0 -92191-2 0  9998,2 51860  53.2176 280.3631 0001161  73.4704 231.2931 15.60589577  3695,6764.09,92.273,386.74,385.17,0.0
51860.0,STARLINK-3559,PAYLOAD,2022-04-18 06:00:00,15.600810999999998,0.0001093,53.2175,278.7453,62.3339,315.8955,-0.0094411,-0.00714338,0.0,0 STARLINK-3559,1 51860U 22022J   22108.25001157 -.00714338  00000-0 -94411-2 0  9991,2 51860  53.2175 278.7453 0001093  62.3339 315.8955 15.60081100  8398,6765.56,92.303,388.164,386.685,0.0
51860.0,STARLINK-3559,PAYLOAD,2022-04-18 14:00:01,15.59572534,0.0001266,53.2175,277.1311,54.6359,36.4451,-0.009659,-0.00716515,0.0,0 STARLINK-3559,1 51860U 22022J   22108.58334491 -.00716515  00000-0 -96590-2 0  9996,2 51860  53.2175 277.1311 0001266  54.6359  36.4451 15.59572534  3703,6767.03,92.333,389.752,388.039,0.0
51860.0,STARLINK-3559,PAYLOAD,2022-04-18 22:00:00,15.59056613,0.0001237,53.2173,275.5191,69.4531,93.8686,-0.0097003,-0.00706399,0.0,0 STARLINK-3559,1 51860U 22022J   22108.91667824 -.00706399  00000-0 -97003-2 0  9991,2 51860  53.2173 275.5191 0001237  69.4531  93.8686 15.59056613  3705,6768.523,92.364,391.225,389.551,0.0
51860.0,STARLINK-3559,PAYLOAD,2022-04-19 06:00:00,15.58550377,0.0001235,53.2175,273.9047,72.8315,162.1169,-0.0099798,-0.00712329,0.0,0 STARLINK-3559,1 51860U 22022J   22109.25001157 -.00712329  00000-0 -99798-2 0  9993,2 51860  53.2175 273.9047 0001235  72.8315 162.1169 15.58550377  8554,6769.989000000001,92.394,392.69,391.018,0.0
51860.0,STARLINK-3559,PAYLOAD,2022-04-19 14:00:01,15.58042175,0.0001252,53.2176,272.2944,63.8096,242.1518,-0.010221,-0.00715334,0.0,0 STARLINK-3559,1 51860U 22022J   22109.58334491 -.00715334  00000-0 -10221-1 0  9991,2 51860  53.2176 272.2944 0001252  63.8096 242.1518 15.58042175  3710,6771.4609999999975,92.424,394.174,392.478,0.0
51860.0,STARLINK-3559,PAYLOAD,2022-04-20 06:00:00,15.57019881,0.0001215,53.2176,269.0755,54.5157,31.6366,-0.010558,-0.00711307,0.0,0 STARLINK-3559,1 51860U 22022J   22110.25001157 -.00711307  00000-0 -10558-1 0  9996,2 51860  53.2176 269.0755 0001215  54.5157  31.6366 15.57019881  8701,6774.424,92.484,397.11300000000006,395.466,0.0
51860.0,STARLINK-3559,PAYLOAD,2022-04-20 14:00:01,15.56510792,0.0001582,53.2177,267.4689,45.4121,109.9151,-0.010784,-0.00712733,0.0,0 STARLINK-3559,1 51860U 22022J   22110.58334491 -.00712733  00000-0 -10784-1 0  9997,2 51860  53.2177 267.4689 0001582  45.4121 109.9151 15.56510792  3697,6775.901,92.515,398.838,396.695,0.0
51860.0,STARLINK-3559,PAYLOAD,2022-04-20 22:00:00,15.55998849,0.0001308,53.2173,265.8638,67.0306,156.8593,-0.010926,-0.0070874,0.0,0 STARLINK-3559,1 51860U 22022J   22110.91667824 -.00708740  00000-0 -10926-1 0  9994,2 51860  53.2173 265.8638 0001308  67.0306 156.8593 15.55998849  3693,6777.388000000001,92.545,400.139,398.366,0.0
51860.0,STARLINK-3559,PAYLOAD,2022-04-21 06:00:00,15.55489973,0.0001366,53.2175,264.257,51.2152,240.6257,-0.011171,-0.00710858,0.0,0 STARLINK-3559,1 51860U 22022J   22111.25001157 -.00710858  00000-0 -11171-1 0  9999,2 51860  53.2175 264.2570 0001366  51.2152 240.6257 15.55489973  8867,6778.866,92.575,401.657,399.805,0.0
51860.0,STARLINK-3559,PAYLOAD,2022-04-21 14:00:01,15.54982805,0.0001332,53.2177,262.6545,48.5966,310.5799,-0.011465,-0.00715543,0.0,0 STARLINK-3559,1 51860U 22022J   22111.58334491 -.00715543  00000-0 -11465-1 0  9997,2 51860  53.2177 262.6545 0001332  48.5966 310.5799 15.54982805  3705,6780.34,92.606,403.108,401.301,0.0
51860.0,STARLINK-3559,PAYLOAD,2022-04-21 22:00:00,15.54470965,0.0001278,53.2171,261.0531,49.9759,15.9249,-0.011616,-0.00711729,0.0,0 STARLINK-3559,1 51860U 22022J   22111.91667824 -.00711729  00000-0 -11616-1 0  9993,2 51860  53.2171 261.0531 0001278  49.9759  15.9249 15.54470965  3717,6781.828,92.636,404.56,402.826,0.0
51860.0,STARLINK-3559,PAYLOAD,2022-04-22 06:00:00,15.53960076,0.0001307,53.2173,259.45,56.6157,75.3986,-0.011819,-0.00710778,0.0,0 STARLINK-3559,1 51860U 22022J   22112.25001157 -.00710778  00000-0 -11819-1 0  9990,2 51860  53.2173 259.4500 0001307  56.6157  75.3986 15.53960076  9020,6783.314,92.666,406.066,404.293,0.0
51860.0,STARLINK-3559,PAYLOAD,2022-04-22 14:00:01,15.53449716,0.0001617,53.2174,257.8511,46.4718,151.0409,-0.012028,-0.00710071,0.0,0 STARLINK-3559,1 51860U 22022J   22112.58334491 -.00710071  00000-0 -12028-1 0  9995,2 51860  53.2174 257.8511 0001617  46.4718 151.0409 15.53449716  3714,6784.8,92.697,407.762,405.568,0.0
51860.0,STARLINK-3559,PAYLOAD,2022-04-23 06:00:02,15.52429484,0.0001165,53.2175,254.6537,64.9814,261.7563,-0.012474,-0.00709499,0.0,0 STARLINK-3559,1 51860U 22022J   22113.25002315 -.00709499  00000-0 -12474-1 0  9994,2 51860  53.2175 254.6537 0001165  64.9814 261.7563 15.52429484  9173,6787.772,92.758,410.42800000000005,408.846,0.0
51860.0,STARLINK-3559,PAYLOAD,2022-04-23 14:00:01,15.5181717,0.0001364,53.2174,253.0568,58.3053,332.0906,-0.010378,-0.00586527,0.0,0 STARLINK-3559,1 51860U 22022J   22113.58334491 -.00586527  00000-0 -10378-1 0  9999,2 51860  53.2174 253.0568 0001364  58.3053 332.0906 15.51817170  3676,6789.558000000001,92.794,412.349,410.496,0.0
51860.0,STARLINK-3559,PAYLOAD,2022-04-24 06:00:00,15.50901273,0.0001713,53.2173,249.8684,38.4321,117.3836,-0.013233,-0.00721263,0.0,0 STARLINK-3559,1 51860U 22022J   22114.25001157 -.00721263  00000-0 -13233-1 0  9995,2 51860  53.2173 249.8684 0001713  38.4321 117.3836 15.50901273  9334,6792.23,92.849,415.259,412.932,0.0
51860.0,STARLINK-3559,PAYLOAD,2022-04-24 14:00:01,15.50326244,0.0001903,53.2175,248.2764,36.2918,181.3591,-0.010292,-0.00553754,0.0,0 STARLINK-3559,1 51860U 22022J   22114.58334491 -.00553754  00000-0 -10292-1 0  9991,2 51860  53.2175 248.2764 0001903  36.2918 181.3591 15.50326244  3698,6793.91,92.884,417.068,414.482,0.0
51860.0,STARLINK-3559,PAYLOAD,2022-04-24 20:00:01,15.49900716,0.0001503,53.2173,247.0824,47.4361,126.1776,-0.00042047,-0.00024255,0.0,0 STARLINK-3559,1 51860U 22022J   22114.83334491 -.00024255  00000-0 -42047-3 0  9993,2 51860  53.2173 247.0824 0001503  47.4361 126.1776 15.49900716  9421,6795.153,92.909,418.04,415.997,0.0
51860.0,STARLINK-3559,PAYLOAD,2022-04-25 06:00:00,15.49892853,0.0001686,53.2163,245.0846,43.6067,296.2334,-0.0022015,-0.00123488,0.0,0 STARLINK-3559,1 51860U 22022J   22115.25001157 -.00123488  00000-0 -22015-2 0  9990,2 51860  53.2163 245.0846 0001686  43.6067 296.2334 15.49892853  9482,6795.176,92.91,418.187,415.896,0.0
51860.0,STARLINK-3559,PAYLOAD,2022-04-25 14:00:01,15.49936664,0.0001862,53.2155,243.4874,42.9165,357.8517,-0.00020265,-0.00011957,0.0,0 STARLINK-3559,1 51860U 22022J   22115.58334491 -.00011957  00000-0 -20265-3 0  9999,2 51860  53.2155 243.4874 0001862  42.9165 357.8517 15.49936664  9535,6795.0480000000025,92.907,418.17800000000005,415.648,0.0
51860.0,STARLINK-3559,PAYLOAD,2022-04-25 22:00:00,15.49963061,0.0001866,53.2154,241.8943,36.4884,65.2471,-0.0016067999999999,-0.00090851,0.0,0 STARLINK-3559,1 51860U 22022J   22115.91667824 -.00090851  00000-0 -16068-2 0  9990,2 51860  53.2154 241.8943 0001866  36.4884  65.2471 15.49963061  3706,6794.971,92.905,418.104,415.568,0.0
51860.0,STARLINK-3559,PAYLOAD,2022-04-26 14:00:01,15.49934797,0.0001802,53.2161,238.7078,34.6877,189.0133,-0.00085656,-0.00048851,0.0,0 STARLINK-3559,1 51860U 22022J   22116.58335648 -.00048851  00000-0 -85656-3 0  9993,2 51860  53.2161 238.7078 0001802  34.6877 189.0133 15.49934797  9698,6795.054,92.907,418.143,415.694,0.0
51860.0,STARLINK-3559,PAYLOAD,2022-04-26 22:00:00,15.49895756,0.0001834,53.216,237.1144,27.7717,256.8214,-0.00048413,-0.00027843,0.0,0 STARLINK-3559,1 51860U 22022J   22116.91667824 -.00027843  00000-0 -48413-3 0  9992,2 51860  53.2160 237.1144 0001834  27.7717 256.8214 15.49895756  3660,6795.168000000002,92.909,418.279,415.787,0.0
51860.0,STARLINK-3559,PAYLOAD,2022-04-27 14:00:01,15.49912584,0.000194,53.2163,233.9286,30.2066,16.2672,-0.00041693,-0.00024066,0.0,0 STARLINK-3559,1 51860U 22022J   22117.58335648 -.00024066  00000-0 -41693-3 0  9999,2 51860  53.2163 233.9286 0001940  30.2066  16.2672 15.49912584  9849,6795.119000000002,92.908,418.302,415.665,0.0
51860.0,STARLINK-3559,PAYLOAD,2022-04-28 14:00:01,15.49889434,0.0002146,53.2165,229.1507,34.1856,194.9764,0.00018346,9.975e-05,0.0,0 STARLINK-3559,1 51860U 22022J   22118.58334491  .00009975  00000-0  18346-3 0  9994,2 51860  53.2165 229.1507 0002146  34.1856 194.9764 15.49889434  3749,6795.186,92.91,418.509,415.593,0.0
51860.0,STARLINK-3559,PAYLOAD,2022-04-28 20:00:01,15.49918341,0.0002113,53.2158,227.9551,32.199,152.6546,-0.00022958,-0.00013476,0.0,0 STARLINK-3559,1 51860U 22022J   22118.83334491 -.00013476  00000-0 -22958-3 0  9999,2 51860  53.2158 227.9551 0002113  32.1990 152.6546 15.49918341 10047,6795.102,92.908,418.403,415.531,0.0
51860.0,STARLINK-3559,PAYLOAD,2022-04-29 14:00:01,15.49904386,0.0002092,53.2164,224.3707,31.0256,20.9087,-0.00075601,-0.00043156,0.0,0 STARLINK-3559,1 51860U 22022J   22119.58334491 -.00043156  00000-0 -75601-3 0  9993,2 51860  53.2164 224.3707 0002092  31.0256  20.9087 15.49904386 10150,6795.143,92.909,418.429,415.586,0.0
51860.0,STARLINK-3559,PAYLOAD,2022-04-29 22:00:00,15.49879357,0.0002155,53.2164,222.777,32.4779,80.3806,-0.00064832,-0.00037069,0.0,0 STARLINK-3559,1 51860U 22022J   22119.91667824 -.00037069  00000-0 -64832-3 0  9999,2 51860  53.2164 222.7770 0002155  32.4779  80.3806 15.49879357  3685,6795.215999999999,92.91,418.545,415.616,0.0
